"Eros" "Sol"
{
	Class "asteroid"
	Mesh   "eros.3ds"
	Texture "eros.*"
	# NormalMap "erosbump2k.jpg"
	# Color sampled from true color photo taken by NEAR
	Color   [ 0.52 0.47 0.42 ]
	BlendTexture true
	Radius 16.3 # maximum semi-axis
	MeshCenter [ -1.262 0.168 -0.164 ]

	EllipticalOrbit
	{
	Epoch       2451171.0      # 1998 Dec 23 12:00UT (NEAR-Shoemaker encounter)
	Period            1.761    # average
	SemiMajorAxis     1.458261 # at epoch
	Eccentricity      0.222885 # at epoch
	Inclination      10.830143 # at epoch
	AscendingNode   304.430882 # at epoch
	ArgOfPericenter 178.613184 # at epoch
	MeanAnomaly     208.403434 # at epoch
	}

	RotationPeriod         5.270
	Obliquity             78.70
	EquatorAscendingNode 107.23
	RotationOffset       338.165

	Albedo 0.16
}


# Radar-imaged asteroids
"Toutatis" "Sol"
{
	Class "asteroid"
	Mesh   "toutatis.3ds"
	Texture "asteroid.jpg"
	# We'll just use the same color as Eros
	Color   [ 0.52 0.47 0.42 ]
	BlendTexture true
	Radius  2.3 # maximum semi-axis
	MeshCenter [ 0.0313 0.2171 0.0064 ]

	InfoURL "http://echo.jpl.nasa.gov/asteroids/4179_Toutatis/toutatis.html"

	EllipticalOrbit
	{
	Epoch       2452200.5       # 2001 Oct 18 00:00UT
	Period            3.976715
	SemiMajorAxis     2.5100537
	Eccentricity      0.6342274
	Inclination       0.46959
	AscendingNode   128.24788
	ArgOfPericenter 274.78070
        MeanAnomaly      86.28120
	}

	RotationPeriod  129.6         # 5.41 days
	Obliquity       145
	PrecessionRate  -48.98        # 7.35 day period

	Albedo 0.16
}

"Geographos" "Sol"
{
	Class "asteroid"
	Mesh   "geographos.3ds"
	Texture "asteroid.jpg"
	# We'll just use the same color as Eros
	Color   [ 0.52 0.47 0.42 ]
	BlendTexture true
	Radius  2.53 # maximum semi-axis
	MeshCenter [ 0.154 -0.002 -0.026 ]

	InfoURL "http://www.solarviews.com/eng/geograph.htm"

	EllipticalOrbit
	{
	Epoch       2450800.5    # 1997 Dec 18 00:00UT
	Period            1.39 
	SemiMajorAxis     1.2455
	Eccentricity      0.3354
	Inclination      13.34
	AscendingNode   337.352
	ArgOfPericenter 276.756
        MeanAnomaly     180.595
	}

	RotationPeriod         5.223 
	Obliquity            136 
	EquatorAscendingNode 145 

	Albedo 0.326 
}

"Kleopatra" "Sol"
{
	Class "asteroid"
	Mesh   "kleopatra.3ds"
	Texture "asteroid.jpg"
	# We'll just use the same color as Eros
	Color   [ 0.52 0.47 0.42 ]
	BlendTexture true
	Radius  110 # maximum semi-axis
	MeshCenter [ -3.049 2.379 1.429 ]

	InfoURL "http://echo.jpl.nasa.gov/~ostro/kle/index.html" 

	EllipticalOrbit
	{
	Epoch       2450800.5    # 1997 Dec 12 00:00UT
	Period            4.67
	SemiMajorAxis     2.791
	Eccentricity      0.2531
	Inclination      13.138
	AscendingNode   215.699
	ArgOfPericenter 179.350
        MeanAnomaly     225.804
	}

	RotationPeriod         5.385
	Obliquity             63 
	EquatorAscendingNode 162    

	Albedo 0.16
	# Class M

}

"1998 KY26" "Sol"
{
	Class "asteroid"
	Mesh   "ky26.3ds"
	Texture "asteroid.jpg"
	# We'll just use the same color as Eros
	Color   [ 0.52 0.47 0.42 ]
	BlendTexture true
	Radius  0.015 # maximum semi-axis
	MeshCenter [ -0.000718 -0.000099 0.000556 ]

	InfoURL "http://echo.jpl.nasa.gov/~ostro/KY26/index.html"

	EllipticalOrbit
	{
	Epoch       2452000.5        # 2001 Apr 1 00:00UT
	Period            1.3752
	SemiMajorAxis     1.2320798
	Eccentricity      0.20151423
	Inclination       1.48127
	AscendingNode    84.45490
	ArgOfPericenter 209.14766
        MeanAnomaly     356.6879717
	}

	RotationPeriod 0.178

	Albedo 0.15

}

"Bacchus" "Sol"
{
	Class "asteroid"
	Mesh   "bacchus.3ds"
	Texture "asteroid.jpg"
	# We'll just use the same color as Eros
	Color   [ 0.52 0.47 0.42 ]
	BlendTexture true
	Radius  0.55 # maximum semi-axis
	MeshCenter [ -0.00936 -0.00610 0.00289 ]

	InfoURL "http://echo.jpl.nasa.gov/~ostro/bacchus/index.html" 

	EllipticalOrbit
	{
	Epoch       2452000.5        # 2001 Apr 1 00:00UT 
	Period            1.1223
	SemiMajorAxis     1.0781035
	Eccentricity      0.34951251
	Inclination       9.43160
	AscendingNode    33.23590
	ArgOfPericenter  55.18040
        MeanAnomaly     229.8627955
	}

	RotationPeriod        14.90 
	Obliquity            116 
	EquatorAscendingNode 114 

	Albedo 0.15
}

"Golevka" "Sol"
{
	Class "asteroid"
	Mesh   "golevka.3ds"
	Texture "asteroid.jpg"
	# We'll just use the same color as Eros
	Color   [ 0.52 0.47 0.42 ]
	BlendTexture true
	Radius  0.34 # maximum semi-axis
	MeshCenter [ -0.0289 -0.0111 -0.0331 ]

	InfoURL "http://echo.jpl.nasa.gov/~ostro/gol/index.html" 

	EllipticalOrbit
	{
	Epoch       2452000.5        # 2001 Apr 1 00:00UT 
	Period            3.995
	SemiMajorAxis     2.5120500
	Eccentricity      0.60117380
	Inclination       2.28701
	AscendingNode   212.16560
	ArgOfPericenter  65.25133
        MeanAnomaly     159.8983670
	}

	RotationPeriod         6.0289 
	Obliquity            135 
	EquatorAscendingNode 292 
    
	Albedo 0.15 
}

"Castalia" "Sol"
{ 
	Class "asteroid"
	Mesh   "castalia.3ds"
	Texture "asteroid.jpg"
	# We'll just use the same color as Eros
	Color   [ 0.52 0.47 0.42 ]
	BlendTexture true
	Radius  0.81 # maximum semi-axis
	MeshCenter [ -0.0456 -0.0347 -0.0178 ]

	InfoURL "http://echo.jpl.nasa.gov/asteroids/4769_Castalia/cast01.html"

	EllipticalOrbit
	{
	Epoch       2452000.5        # 2001 Apr 1 00:00UT
	Period            1.096
	SemiMajorAxis     1.0632007
	Eccentricity      0.48324394
	Inclination       8.88806
	AscendingNode   325.71246
	ArgOfPericenter 121.26355
        MeanAnomaly     152.5186007
	}

	RotationPeriod         4.095 
	Obliquity            146 
	EquatorAscendingNode 325 

	Albedo 0.15 
}


# Comets
"Halley" "Sol" 
{ 
	Class "comet" 
	Mesh "halley.3ds"
	Texture "asteroid.jpg" 
	Radius 7.6 # maximum semi-axis
	MeshCenter [ -0.338 1.303 0.230 ]

	EllipticalOrbit 
	{ 
	Epoch        2449400.5      #1994 Feb 17 00:00UT
	Period            75.31589 
	SemiMajorAxis     17.834144 
	Eccentricity       0.967143 
	Inclination      162.262690 
	AscendingNode     58.420081 
	ArgOfPericenter  111.332485 
	MeanAnomaly       38.384264 
	} 

	# chaotic rotation, imperfectly defined: 
	# this version from "The New Solar System", 4th Edition; Eds.
	# JK Beatty, CC Petersen, A Chaikin 

	RotationPeriod 170          # 7.1 day axial rotation period 
	Obliquity       66    
	PrecessionRate  97          # 3.7 day precession period 

	Albedo 0.04 
} 

"Borrelly" "Sol" 
{ 
	Class "comet" 
	Mesh "borrelly.cms" 
	Texture "asteroid.jpg" 
	Radius 2.2 

	InfoURL "http://www.solarviews.com/eng/borrelly.htm"

	EllipticalOrbit 
	{ 
	Epoch        2452174.5      # 2001 Sep 22 00:00UT
	Period             6.86302 
	SemiMajorAxis      3.611363 
	Eccentricity       0.623908 
	Inclination       30.324612 
	AscendingNode     75.424869 
	ArgOfPericenter  353.375385 
	MeanAnomaly      358.956091 
	} 

	RotationPeriod        25 
	Obliquity             90 
	EquatorAscendingNode 315 

	Albedo 0.04 
} 

"Ikeya-Zhang" "Sol" 
{ 
	Class "comet" 
	Texture "asteroid.jpg" 
	Mesh "roughsphere.cms" 

	EllipticalOrbit 
	{ 
	Epoch        2452352.47847  # 2002 Mar 18 23:29UT
	Period           367.181906 
	SemiMajorAxis     51.276792 
	Eccentricity       0.990111 
	Inclination       28.1206 
	AscendingNode     93.3718 
	ArgOfPericenter   34.6666 
	MeanAnomaly        0 
	} 

	# These are all made up (copied from Halley)
	Radius           7.5 
	RotationPeriod 170 

	Albedo 0.04 
} 


# Centaurs
"Chiron" "Sol" 
{ 
	Class "asteroid" 
	Texture "asteroid.jpg" 
	Radius 144 

	EllipticalOrbit 
	{ 
	Epoch        2449608.5      # 1994 Sep 13 00:00UT
	Period            50.90359 
	SemiMajorAxis     13.734941 
	Eccentricity       0.384424 
	Inclination        6.927771 
	AscendingNode    209.395188 
	ArgOfPericenter  339.432152 
	MeanAnomaly      349.983669 
	} 

	RotationPeriod 5.918 

	Albedo 0.048 
}


# Kuiper belt objects

# 20000 Varuna 
"Varuna" "Sol" 
{ 
	Class "asteroid" 
	Texture "asteroid.jpg" 
	Radius 450 

	EllipticalOrbit 
	{ 
	Epoch        2452400.5      # 2002 May 6 00:00UT 
	Period           284.83446 
	SemiMajorAxis     43.290196 
	Eccentricity       0.053794 
	Inclination       17.12557 
	AscendingNode     97.2843 
	ArgOfPericenter  275.5744 
	MeanAnomaly       82.67171 
	} 

	RotationPeriod 6.3442 # for a double-peaked light curve 

	Albedo 0.4 
} 

# 2001 KX76 
"Ixion" "Sol" 
{ 
	Class "asteroid" 
	Texture "asteroid.jpg" 
	Radius 600 

	EllipticalOrbit 
	{ 
	Epoch        2452400.5       # 2002 May 6 00:00UT
	Period           246.50564 
	SemiMajorAxis     39.3138672 
	Eccentricity       0.2447032 
	Inclination       19.68326 
	AscendingNode     71.0155 
	ArgOfPericenter  300.9234 
	MeanAnomaly      259.585 
	} 

	RotationPeriod 30.0 

	Albedo 0.07 
}
